OBJECT_NAME,OBJECT_ID,EPOCH,MEAN_MOTION,ECCENTRICITY,INCLINATION,RA_OF_ASC_NODE,ARG_OF_PERICENTER,MEAN_ANOMALY,EPHEMERIS_TYPE,CLASSIFICATION_TYPE,NORAD_CAT_ID,ELEMENT_SET_NO,REV_AT_EPOCH,BSTAR,MEAN_MOTION_DOT,MEAN_MOTION_DDOT
SL-16 R/B,1994-077B,2026-07-13T02:59:56.263200,14.15574600,.00040908,70.9823,88.5951,304.9983,55.0756,0,U,23405,999,63398,-.73168018E-4,-.191E-5,0
ARIANE 40+ R/B,1995-021B,2026-07-13T04:14:31.009920,14.39846937,.00078451,98.4401,263.8749,121.6463,264.6723,0,U,23561,999,63730,.52738263E-4,.122E-5,0
SL-16 R/B,1995-058B,2026-07-13T15:11:01.105152,14.15508286,.00146081,71.0211,275.8361,284.7733,75.1772,0,U,23705,999,58567,.66971167E-4,.83E-6,0
SL-16 R/B,1996-051B,2026-07-13T14:07:37.622496,14.12455832,.00176839,70.7647,268.7769,300.1634,59.7733,0,U,24298,999,53942,.10840857E-3,.151E-5,0
ORBVIEW 2 (SEASTAR),1997-037A,2026-07-13T10:27:37.630944,14.35566309,.00031284,98.8711,2.1855,64.3180,295.8327,0,U,24883,999,52651,.53034954E-4,.106E-5,0
SL-16 R/B,1998-043G,2026-07-13T11:07:09.768000,14.26072537,.00101323,98.8378,148.8507,16.3331,343.8173,0,U,25400,999,45691,.16118234E-4,-.7E-7,0
SL-16 R/B,1998-045B,2026-07-13T12:16:03.620928,14.16205880,.00082881,71.0113,276.9701,209.1002,150.9660,0,U,25407,999,44491,-.97978059E-4,-.242E-5,0
ISS (ZARYA),1998-067A,2026-07-13T07:33:22.422240,15.48997295,.0006687,51.6305,170.7871,290.3592,69.6678,0,U,25544,999,57580,.81266333E-4,.4029E-4,0
CZ-4B R/B,1999-025C,2026-07-13T02:13:35.861088,14.18287488,.0036744,98.6473,235.2777,345.8565,40.8493,0,U,25732,999,40594,.32307441E-4,.24E-6,0
OKEAN-O,1999-039A,2026-07-13T15:19:49.461024,14.80496244,.00009212,97.9303,253.1312,84.7411,275.3907,0,U,25860,999,45302,.41468277E-4,.265E-5,0
SL-16 R/B,1999-039B,2026-07-13T15:15:50.621184,14.81869831,.0014215,97.9824,253.4218,203.6406,156.4155,0,U,25861,999,45551,.3485855E-4,.222E-5,0
DELTA 2 R/B,1999-041E,2026-07-13T07:02:56.801472,14.12079571,.05013407,51.7612,159.4948,359.1428,0.8599,0,U,25876,999,38077,.25403283E-3,.1342E-4,0
HELIOS 1B,1999-064A,2026-07-13T14:31:37.240032,14.88072978,.00020384,98.1587,100.5074,55.7879,304.3530,0,U,25977,999,70398,.79917343E-4,.676E-5,0
TERRA,1999-068A,2026-07-13T16:00:36.792864,14.61122991,.00033487,97.9443,243.1616,125.8536,348.4092,0,U,25994,999,41347,.4831979E-4,.193E-5,0
SL-16 R/B,2000-006B,2026-07-13T10:01:42.142368,14.15838417,.00171245,71.0002,193.4702,342.4252,17.6277,0,U,26070,999,36635,-.77538859E-4,-.201E-5,0
TITAN 4B R/B,2000-047B,2026-07-13T14:48:58.355712,15.10328673,.00458643,67.9872,46.1699,260.3300,99.2667,0,U,26474,999,41192,.8488849E-4,.1286E-4,0
ENVISAT,2002-009A,2026-07-13T11:18:17.284896,14.39070532,.00013412,98.3846,145.2052,83.8219,24.8831,0,U,27386,999,27726,.2005417E-4,.19E-6,0
IDEFIX & ARIANE 42P R/B,2002-021B,2026-07-13T10:02:23.878752,14.31093299,.00117863,98.5943,131.6177,171.6602,188.4779,0,U,27422,999,26200,.49998883E-4,.88E-6,0
AQUA,2002-022A,2026-07-13T14:30:15.795072,14.62195665,.00008895,98.4294,164.4181,109.9840,304.5267,0,U,27424,999,28713,.82492461E-4,.366E-5,0
CZ-4B R/B,2002-024C,2026-07-13T15:13:16.608864,14.14568067,.00505412,98.8687,247.2807,26.3955,88.9815,0,U,27432,999,24704,.28646735E-4,.11E-6,0
MIDORI II (ADEOS-II),2002-056A,2026-07-13T11:00:17.428320,14.29362567,.00015525,98.7894,153.9439,42.9556,317.1746,0,U,27597,999,22826,.56520946E-4,.99E-6,0
H-2A R/B,2002-056E,2026-07-13T11:16:23.692224,14.33833338,.00708,98.3328,150.1882,146.0159,326.1306,0,U,27601,999,23213,.54823417E-4,.116E-5,0
CZ-4B R/B,2003-049C,2026-07-13T11:58:27.625440,14.55115425,.00475375,98.6909,194.3943,206.4811,153.3956,0,U,28059,999,20489,.44002794E-4,.141E-5,0
CZ-2C R/B,2004-012C,2026-07-13T03:52:27.184800,15.84778211,.00114684,97.7067,272.9570,197.3679,162.7199,0,U,28222,999,22400,.42891622E-3,.100274E-2,0
SL-16 R/B,2004-021B,2026-07-13T14:34:52.643136,14.14616256,.0006363,71.0027,328.2400,226.4712,133.5882,0,U,28353,999,14064,.35966722E-4,.22E-6,0
CZ-4B R/B,2004-035C,2026-07-13T14:33:05.117472,15.30978169,.00291426,97.3359,227.3865,238.5782,121.2609,0,U,28415,999,19916,.1425996E-3,.4243E-4,0
CZ-2C R/B,2004-046B,2026-07-13T15:00:55.022112,14.27032792,.01400433,98.1919,101.7509,142.0118,219.1042,0,U,28480,999,12646,.32827147E-4,.49E-6,0
ARIANE 5 R/B,2004-049H,2026-07-13T11:13:29.966016,14.85477864,.00827129,98.2739,7.7397,303.9645,55.3727,0,U,28499,999,16446,.37475672E-4,.277E-5,0
CZ-2D R/B,2005-024B,2026-07-13T00:22:39.380448,15.72551891,.00020368,97.3471,214.7884,197.1497,162.9698,0,U,28738,999,15939,.40847992E-3,.54658E-3,0
ALOS (DAICHI),2006-002A,2026-07-13T10:21:20.650464,14.70099841,.0000812,98.1337,149.9197,95.8759,264.2539,0,U,28931,999,9195,.89262808E-4,.487E-5,0
